OBJECT_NAME,OBJECT_ID,EPOCH,MEAN_MOTION,ECCENTRICITY,INCLINATION,RA_OF_ASC_NODE,ARG_OF_PERICENTER,MEAN_ANOMALY,EPHEMERIS_TYPE,CLASSIFICATION_TYPE,NORAD_CAT_ID,ELEMENT_SET_NO,REV_AT_EPOCH,BSTAR,MEAN_MOTION_DOT,MEAN_MOTION_DDOT
ASTRA 2F,2012-051A,2024-09-23T14:29:37.196736,1.00269851,.0004305,0.0726,254.3060,316.1873,38.0242,0,U,38778,999,3480,0,.137E-5,0
GSAT-10,2012-051B,2024-09-22T23:55:42.627360,1.00273251,.0002816,0.0127,210.0437,44.1964,190.0278,0,U,38779,999,4376,0,-.177E-5,0
INTELSAT 23 (IS-23),2012-057A,2024-09-23T04:20:49.828128,1.00264893,.0000888,0.0273,227.0482,79.7275,67.9239,0,U,38867,999,4360,0,-.296E-5,0
BEIDOU-2 G6,2012-059A,2024-09-23T13:02:32.697600,1.00270348,.0006219,2.8071,79.6940,306.3671,256.4933,0,U,38953,999,4357,0,-.187E-5,0
LUCH-5B,2012-061A,2024-09-23T05:41:53.591712,1.00270931,.0006709,9.1027,55.8189,143.0962,232.8128,0,U,38977,999,4327,0,-.146E-5,0
YAMAL 300K,2012-061B,2024-09-23T10:02:33.798336,1.00270326,.0000362,0.0154,229.8132,355.7583,110.7915,0,U,38978,999,4329,0,.59E-6,0
STAR ONE C3,2012-062A,2024-09-23T14:00:05.672736,1.00272117,.0002121,0.0200,98.4920,84.8883,314.5674,0,U,38991,999,4342,0,-.261E-5,0
EUTELSAT 21B,2012-062B,2024-09-23T14:27:37.093824,1.00270785,.000274,0.0689,358.6417,177.6177,65.1788,0,U,38992,999,4349,0,.118E-5,0
ECHOSTAR 16,2012-065A,2024-09-23T12:21:00.551808,1.00271878,.0002182,0.0177,175.6633,4.0375,306.9071,0,U,39008,999,4329,0,-.294E-5,0
ZHONGXING-12,2012-067A,2024-09-23T04:49:42.834144,1.00272876,.0002802,0.0123,137.6862,48.8081,335.9579,0,U,39017,999,4317,0,-.219E-5,0
EUTELSAT 70B,2012-069A,2024-09-23T14:41:07.791936,1.00271652,.0003907,0.0646,359.4365,186.3992,107.8932,0,U,39020,999,4317,0,-.56E-6,0
YAMAL 402,2012-070A,2024-09-23T12:54:17.271360,1.00272441,.0004251,0.0195,130.7692,65.3799,55.1945,0,U,39022,999,4306,0,.73E-6,0
SKYNET 5D,2012-075A,2024-09-23T14:36:37.560384,1.00270712,.0004097,0.0689,356.6038,198.1055,80.1123,0,U,39034,999,4282,0,.87E-6,0
MEXSAT 3,2012-075B,2024-09-23T13:48:42.583104,1.00272578,.0001715,0.0268,106.6971,71.0632,277.5296,0,U,39035,999,71,0,-.38E-6,0
TDRS 11,2013-004A,2024-09-23T14:06:42.597792,1.00280163,.0003476,2.8013,15.0302,65.3714,320.1005,0,U,39070,999,4036,0,.7E-6,0
AMAZONAS 3,2013-006A,2024-09-23T07:12:12.565152,1.00272368,.0005198,0.0308,226.0991,334.7826,208.8312,0,U,39078,999,3857,0,-.294E-5,0
AZERSPACE 1,2013-006B,2024-09-23T12:51:47.141856,1.00269470,.0002233,0.0173,159.2684,60.3382,22.1954,0,U,39079,999,4247,0,.121E-5,0
SBIRS GEO-2 (USA 241),2013-011A,2024-09-23T10:44:40.574976,1.00271354,.00018,3.1671,48.6255,143.2343,294.1034,0,U,39120,999,4220,0,-.267E-5,0
EUTELSAT 117 WEST A,2013-012A,2024-09-23T13:48:05.051808,1.00271463,.0002914,0.0139,124.2816,67.0310,261.8094,0,U,39122,999,4209,0,-.25E-6,0
ANIK G1,2013-014A,2024-09-23T13:50:50.193312,1.00270501,.0002779,0.0206,165.0971,56.9027,241.3152,0,U,39127,999,4192,0,-.86E-6,0
ZHONGXING-11,2013-020A,2024-09-23T13:49:12.482688,1.00270087,.0003119,0.0140,231.0715,54.5595,22.4738,0,U,39157,999,4156,0,-.303E-5,0
EUTELSAT 7B,2013-022A,2024-09-23T14:23:36.888000,1.00273285,.0000964,0.0677,355.3328,339.0559,251.4561,0,U,39163,999,4162,0,.36E-6,0
WGS F5 (USA 243),2013-024A,2024-09-23T12:23:30.681312,1.00268332,.0001369,0.0193,161.8633,68.5412,265.8148,0,U,39168,999,4084,0,-.296E-5,0
SES-6,2013-026A,2024-09-23T10:44:03.041952,1.00270878,.0002197,0.0427,343.8578,205.9997,293.4563,0,U,39172,999,4139,0,-.273E-5,0
IRNSS-1A,2013-034A,2024-09-23T12:54:24.777792,1.00268898,.0021158,34.2994,73.0072,179.9009,358.7281,0,U,39199,999,4103,0,.74E-6,0
MUOS-2,2013-036A,2024-09-23T13:52:13.712736,1.00272573,.0055862,3.7926,41.7770,178.0150,174.1412,0,U,39206,999,4085,0,.54E-6,0
ALPHASAT,2013-038A,2024-09-23T14:28:37.146144,1.00272993,.0004129,2.9027,6.6786,197.3733,40.8990,0,U,39215,999,3768,0,.123E-5,0
INSAT-3D,2013-038B,2024-09-23T13:15:40.876416,1.00269422,.0001892,0.2851,92.1003,116.1614,123.0966,0,U,39216,999,4074,0,-.351E-5,0
WGS F6 (USA 244),2013-041A,2024-09-23T13:42:57.286368,1.00270501,.0000731,0.0090,197.6463,70.6991,165.1040,0,U,39222,999,3971,0,.77E-6,0
ES'HAIL 1,2013-044A,2024-09-23T14:28:52.159008,1.00274974,.0002218,0.0583,2.5260,195.5618,47.5948,0,U,39233,999,4029,0,.131E-5,0
GSAT-7,2013-044B,2024-09-23T05:12:27.775296,1.00271836,.0008813,0.0464,101.1889,158.7394,254.7573,0,U,39234,999,3898,0,-.89E-6,0
AMOS-4,2013-045A,2024-09-23T05:13:42.774816,1.00273655,.0001632,0.0222,215.7723,23.0067,267.2350,0,U,39237,999,4062,0,-.5E-7,0
