ASTRA 2F                
1 38778U 12051A   24267.60390274  .00000137  00000+0  00000+0 0  9993
2 38778   0.0726 254.3060 0004305 316.1873  38.0242  1.00269851 34807
GSAT-10                 
1 38779U 12051B   24266.99702115 -.00000177  00000+0  00000+0 0  9991
2 38779   0.0127 210.0437 0002816  44.1964 190.0278  1.00273251 43766
INTELSAT 23 (IS-23)     
1 38867U 12057A   24267.18113227 -.00000296  00000+0  00000+0 0  9999
2 38867   0.0273 227.0482 0000888  79.7275  67.9239  1.00264893 43604
BEIDOU-2 G6             
1 38953U 12059A   24267.54343400 -.00000187  00000+0  00000+0 0  9994
2 38953   2.8071  79.6940 0006219 306.3671 256.4933  1.00270348 43573
LUCH-5B                 
1 38977U 12061A   24267.23742583 -.00000146  00000+0  00000+0 0  9999
2 38977   9.1027  55.8189 0006709 143.0962 232.8128  1.00270931 43273
YAMAL 300K              
1 38978U 12061B   24267.41844674  .00000059  00000+0  00000+0 0  9996
2 38978   0.0154 229.8132 0000362 355.7583 110.7915  1.00270326 43294
STAR ONE C3             
1 38991U 12062A   24267.58339899 -.00000261  00000+0  00000+0 0  9994
2 38991   0.0200  98.4920 0002121  84.8883 314.5674  1.00272117 43425
EUTELSAT 21B            
1 38992U 12062B   24267.60251266  .00000118  00000+0  00000+0 0  9999
2 38992   0.0689 358.6417 0002740 177.6177  65.1788  1.00270785 43494
ECHOSTAR 16             
1 39008U 12065A   24267.51458972 -.00000294  00000+0  00000+0 0  9990
2 39008   0.0177 175.6633 0002182   4.0375 306.9071  1.00271878 43298
ZHONGXING-12            
1 39017U 12067A   24267.20119021 -.00000219  00000+0  00000+0 0  9994
2 39017   0.0123 137.6862 0002802  48.8081 335.9579  1.00272876 43171
EUTELSAT 70B            
1 39020U 12069A   24267.61189574 -.00000056  00000+0  00000+0 0  9994
2 39020   0.0646 359.4365 0003907 186.3992 107.8932  1.00271652 43173
YAMAL 402               
1 39022U 12070A   24267.53769990  .00000073  00000+0  00000+0 0  9993
2 39022   0.0195 130.7692 0004251  65.3799  55.1945  1.00272441 43065
SKYNET 5D               
1 39034U 12075A   24267.60876806  .00000087  00000+0  00000+0 0  9999
2 39034   0.0689 356.6038 0004097 198.1055  80.1123  1.00270712 42825
MEXSAT 3                
1 39035U 12075B   24267.57549286 -.00000038  00000+0  00000+0 0  9992
2 39035   0.0268 106.6971 0001715  71.0632 277.5296  1.00272578   719
TDRS 11                 
1 39070U 13004A   24267.58799303  .00000070  00000+0  00000+0 0  9997
2 39070   2.8013  15.0302 0003476  65.3714 320.1005  1.00280163 40367
AMAZONAS 3              
1 39078U 13006A   24267.30014543 -.00000294  00000+0  00000+0 0  9992
2 39078   0.0308 226.0991 0005198 334.7826 208.8312  1.00272368 38571
AZERSPACE 1             
1 39079U 13006B   24267.53596229  .00000121  00000+0  00000+0 0  9992
2 39079   0.0173 159.2684 0002233  60.3382  22.1954  1.00269470 42477
SBIRS GEO-2 (USA 241)   
1 39120U 13011A   24267.44769184 -.00000267  00000+0  00000+0 0  9999
2 39120   3.1671  48.6255 0001800 143.2343 294.1034  1.00271354 42208
EUTELSAT 117 WEST A     
1 39122U 13012A   24267.57505847 -.00000025  00000+0  00000+0 0  9992
2 39122   0.0139 124.2816 0002914  67.0310 261.8094  1.00271463 42098
ANIK G1                 
1 39127U 13014A   24267.57696983 -.00000086  00000+0  00000+0 0  9998
2 39127   0.0206 165.0971 0002779  56.9027 241.3152  1.00270501 41925
ZHONGXING-11            
1 39157U 13020A   24267.57583892 -.00000303  00000+0  00000+0 0  9994
2 39157   0.0140 231.0715 0003119  54.5595  22.4738  1.00270087 41565
EUTELSAT 7B             
1 39163U 13022A   24267.59973250  .00000036  00000+0  00000+0 0  9998
2 39163   0.0677 355.3328 0000964 339.0559 251.4561  1.00273285 41621
WGS F5 (USA 243)        
1 39168U 13024A   24267.51632733 -.00000296  00000+0  00000+0 0  9994
2 39168   0.0193 161.8633 0001369  68.5412 265.8148  1.00268332 40840
SES-6                   
1 39172U 13026A   24267.44725743 -.00000273  00000+0  00000+0 0  9992
2 39172   0.0427 343.8578 0002197 205.9997 293.4563  1.00270878 41397
IRNSS-1A                
1 39199U 13034A   24267.53778678  .00000074  00000+0  00000+0 0  9993
2 39199  34.2994  73.0072 0021158 179.9009 358.7281  1.00268898 41039
MUOS-2                  
1 39206U 13036A   24267.57793649  .00000054  00000+0  00000+0 0  9991
2 39206   3.7926  41.7770 0055862 178.0150 174.1412  1.00272573 40857
ALPHASAT                
1 39215U 13038A   24267.60320771  .00000123  00000+0  00000+0 0  9996
2 39215   2.9027   6.6786 0004129 197.3733  40.8990  1.00272993 37681
INSAT-3D                
1 39216U 13038B   24267.55255644 -.00000351  00000+0  00000+0 0  9991
2 39216   0.2851  92.1003 0001892 116.1614 123.0966  1.00269422 40742
WGS F6 (USA 244)        
1 39222U 13041A   24267.57149637  .00000077  00000+0  00000+0 0  9992
2 39222   0.0090 197.6463 0000731  70.6991 165.1040  1.00270501 39711
ES'HAIL 1               
1 39233U 13044A   24267.60338147  .00000131  00000+0  00000+0 0  9998
2 39233   0.0583   2.5260 0002218 195.5618  47.5948  1.00274974 40297
GSAT-7                  
1 39234U 13044B   24267.21698814 -.00000089  00000+0  00000+0 0  9999
2 39234   0.0464 101.1889 0008813 158.7394 254.7573  1.00271836 38981
AMOS-4                  
1 39237U 13045A   24267.21785619 -.00000005  00000+0  00000+0 0  9991
2 39237   0.0222 215.7723 0001632  23.0067 267.2350  1.00273655 40625
